[{"OBJECT_NAME":"ZACUBE-1 (TSHEPISOSAT)","OBJECT_ID":"2013-066B","EPOCH":"2026-03-09T22:19:27.469056","MEAN_MOTION":15.00329659,"ECCENTRICITY":0.00425262,"INCLINATION":97.8171,"RA_OF_ASC_NODE":30.7553,"ARG_OF_PERICENTER":219.1599,"MEAN_ANOMALY":140.6545,"EPHEMERIS_TYPE":0,"CLASSIFICATION_TYPE":"U","NORAD_CAT_ID":39417,"ELEMENT_SET_NO":999,"REV_AT_EPOCH":66584,"BSTAR":0.00042975473,"MEAN_MOTION_DOT":5.431e-5,"MEAN_MOTION_DDOT":0},{"OBJECT_NAME":"STARLINK-3879","OBJECT_ID":"2022-049Y","EPOCH":"2026-03-09T05:58:47.803296","MEAN_MOTION":15.08840536,"ECCENTRICITY":0.00015349,"INCLINATION":53.2173,"RA_OF_ASC_NODE":61.095,"ARG_OF_PERICENTER":87.6125,"MEAN_ANOMALY":272.5042,"EPHEMERIS_TYPE":0,"CLASSIFICATION_TYPE":"U","NORAD_CAT_ID":52473,"ELEMENT_SET_NO":999,"REV_AT_EPOCH":21218,"BSTAR":2.1225021e-5,"MEAN_MOTION_DOT":5.0e-7,"MEAN_MOTION_DDOT":0}]
